[{"OBJECT_NAME":"OBJECT G","OBJECT_ID":"2024-205G","EPOCH":"2026-03-09T23:05:54.449664","MEAN_MOTION":15.09392775,"ECCENTRICITY":0.00211709,"INCLINATION":97.4199,"RA_OF_ASC_NODE":141.9686,"ARG_OF_PERICENTER":130.0324,"MEAN_ANOMALY":230.2768,"EPHEMERIS_TYPE":0,"CLASSIFICATION_TYPE":"U","NORAD_CAT_ID":61900,"ELEMENT_SET_NO":999,"REV_AT_EPOCH":7318,"BSTAR":0.00059967322,"MEAN_MOTION_DOT":9.576e-5,"MEAN_MOTION_DDOT":0},{"OBJECT_NAME":"STARLINK-35115","OBJECT_ID":"2025-211P","EPOCH":"2026-03-09T16:32:13.175232","MEAN_MOTION":15.05661545,"ECCENTRICITY":0.00011083,"INCLINATION":97.6026,"RA_OF_ASC_NODE":114.0949,"ARG_OF_PERICENTER":127.5347,"MEAN_ANOMALY":232.5981,"EPHEMERIS_TYPE":0,"CLASSIFICATION_TYPE":"U","NORAD_CAT_ID":65665,"ELEMENT_SET_NO":999,"REV_AT_EPOCH":2704,"BSTAR":0.00031925082,"MEAN_MOTION_DOT":4.55e-5,"MEAN_MOTION_DDOT":0}]
